CUBEL                   
1 47448U 21006AM  26068.36827226  .00010810  00000+0  27955-3 0  9994
2 47448  97.2474 119.9764 0007356 160.7871 199.3654 15.39239773284392
LEMUR-2-VALHALLA        
1 58900U 24022B   26068.54038264  .00019103  00000+0  53647-3 0  9997
2 58900  97.4228 277.4862 0011228 109.8773 250.3682 15.36522305116951
