[{"OBJECT_NAME":"CUBEL","OBJECT_ID":"2021-006AM","EPOCH":"2026-03-09T08:50:18.723264","MEAN_MOTION":15.39239773,"ECCENTRICITY":0.00073561,"INCLINATION":97.2474,"RA_OF_ASC_NODE":119.9764,"ARG_OF_PERICENTER":160.7871,"MEAN_ANOMALY":199.3654,"EPHEMERIS_TYPE":0,"CLASSIFICATION_TYPE":"U","NORAD_CAT_ID":47448,"ELEMENT_SET_NO":999,"REV_AT_EPOCH":28439,"BSTAR":0.00027955436,"MEAN_MOTION_DOT":0.0001081,"MEAN_MOTION_DDOT":0},{"OBJECT_NAME":"LEMUR-2-VALHALLA","OBJECT_ID":"2024-022B","EPOCH":"2026-03-09T12:58:09.060096","MEAN_MOTION":15.36522305,"ECCENTRICITY":0.00112289,"INCLINATION":97.4228,"RA_OF_ASC_NODE":277.4862,"ARG_OF_PERICENTER":109.8773,"MEAN_ANOMALY":250.3682,"EPHEMERIS_TYPE":0,"CLASSIFICATION_TYPE":"U","NORAD_CAT_ID":58900,"ELEMENT_SET_NO":999,"REV_AT_EPOCH":11695,"BSTAR":0.00053647225,"MEAN_MOTION_DOT":0.00019103,"MEAN_MOTION_DDOT":0}]
